{
  "norad_id": 40345,
  "name": "YAMAL 401",
  "history": [
    {
      "epoch": "2026-03-27T13:32:32.540064",
      "apogee_km": 35788.57812712922,
      "perigee_km": 35785.441040223406,
      "latitude_deg": 0.003524475140293688,
      "longitude_deg": -27.33051103982143,
      "semi_major_axis_km": 42165.14658367632,
      "eccentricity": 3.72e-05,
      "inclination_deg": 0.0038,
      "raan_deg": 157.9388,
      "arg_perigee_deg": 86.2381,
      "mean_anomaly_deg": 233.8925,
      "mean_motion_rev_day": 1.00270306
    }
  ]
}